{
  "type": "FeatureCollection",
  "features": [
    {
      "type": "Feature",
      "properties": {
        "norad_id": 28054,
        "name": "DMSP 5D-3 F16 (USA 172)",
        "group": "weather",
        "lat": 45.723749079471915,
        "lon": -5.419363956464948,
        "alt_km": 839.8170805857735,
        "timestamp": "2025-12-12T11:38:31.058861+00:00",
        "meta_object_name": "DMSP 5D-3 F16 (USA 172)",
        "meta_object_id": "2003-048A",
        "meta_epoch": "2025-12-12T03:16:07.260096",
        "meta_mean_motion": 14.14423857,
        "meta_eccentricity": 0.0006523,
        "meta_inclination": 99.0047,
        "meta_ra_of_asc_node": 3.5884,
        "meta_arg_of_pericenter": 322.7927,
        "meta_mean_anomaly": 108.1529,
        "meta_ephemeris_type": 0,
        "meta_classification_type": "U",
        "meta_norad_cat_id": 28054,
        "meta_element_set_no": 999,
        "meta_rev_at_epoch": 14304,
        "meta_bstar": 0.00013378,
        "meta_mean_motion_dot": 2.11e-06,
        "meta_mean_motion_ddot": 0,
        "tle_line1": "1 28054U 03048A   25346.13619514  .00000211  00000+0  13378-3 0  9992",
        "tle_line2": "2 28054  99.0047   3.5884 0006523 322.7927 108.1529 14.14423857143043"
      },
      "geometry": {
        "type": "Point",
        "coordinates": [
          -5.419363956464948,
          45.723749079471915
        ]
      }
    },
    {
      "type": "Feature",
      "properties": {
        "norad_id": 28912,
        "name": "METEOSAT-9 (MSG-2)",
        "group": "weather",
        "lat": -8.160487948949925,
        "lon": -58.49180228083457,
        "alt_km": 35777.21123400114,
        "timestamp": "2025-12-12T11:38:31.058911+00:00",
        "meta_object_name": "METEOSAT-9 (MSG-2)",
        "meta_object_id": "2005-049B",
        "meta_epoch": "2025-12-11T20:34:34.468032",
        "meta_mean_motion": 1.00276076,
        "meta_eccentricity": 0.0003644,
        "meta_inclination": 8.9379,
        "meta_ra_of_asc_node": 55.9858,
        "meta_arg_of_pericenter": 189.8677,
        "meta_mean_anomaly": 189.2654,
        "meta_ephemeris_type": 0,
        "meta_classification_type": "U",
        "meta_norad_cat_id": 28912,
        "meta_element_set_no": 999,
        "meta_rev_at_epoch": 512,
        "meta_bstar": 0,
        "meta_mean_motion_dot": 1.29e-06,
        "meta_mean_motion_ddot": 0,
        "tle_line1": "1 28912U 05049B   25345.85734338  .00000129  00000+0  00000+0 0  9990",
        "tle_line2": "2 28912   8.9379  55.9858 0003644 189.8677 189.2654  1.00276076  5125"
      },
      "geometry": {
        "type": "Point",
        "coordinates": [
          -58.49180228083457,
          -8.160487948949925
        ]
      }
    },
    {
      "type": "Feature",
      "properties": {
        "norad_id": 29522,
        "name": "DMSP 5D-3 F17 (USA 191)",
        "group": "weather",
        "lat": -13.469748219501378,
        "lon": -6.009056106582553,
        "alt_km": 850.5305518597361,
        "timestamp": "2025-12-12T11:38:31.058929+00:00",
        "meta_object_name": "DMSP 5D-3 F17 (USA 191)",
        "meta_object_id": "2006-050A",
        "meta_epoch": "2025-12-12T03:13:13.759392",
        "meta_mean_motion": 14.14919113,
        "meta_eccentricity": 0.0009384,
        "meta_inclination": 98.7394,
        "meta_ra_of_asc_node": 351.5359,
        "meta_arg_of_pericenter": 226.7431,
        "meta_mean_anomaly": 133.296,
        "meta_ephemeris_type": 0,
        "meta_classification_type": "U",
        "meta_norad_cat_id": 29522,
        "meta_element_set_no": 999,
        "meta_rev_at_epoch": 98596,
        "meta_bstar": 0.00016616,
        "meta_mean_motion_dot": 2.78e-06,
        "meta_mean_motion_ddot": 0,
        "tle_line1": "1 29522U 06050A   25346.13418703  .00000278  00000+0  16616-3 0  9997",
        "tle_line2": "2 29522  98.7394 351.5359 0009384 226.7431 133.2960 14.14919113985967"
      },
      "geometry": {
        "type": "Point",
        "coordinates": [
          -6.009056106582553,
          -13.469748219501378
        ]
      }
    },
    {
      "type": "Feature",
      "properties": {
        "norad_id": 32958,
        "name": "FENGYUN 3A",
        "group": "weather",
        "lat": 55.26407280623261,
        "lon": -86.69508368999519,
        "alt_km": 823.1768875049411,
        "timestamp": "2025-12-12T11:38:31.058943+00:00",
        "meta_object_name": "FENGYUN 3A",
        "meta_object_id": "2008-026A",
        "meta_epoch": "2025-12-11T20:09:10.932768",
        "meta_mean_motion": 14.19514245,
        "meta_eccentricity": 0.00079441,
        "meta_inclination": 98.6697,
        "meta_ra_of_asc_node": 285.3855,
        "meta_arg_of_pericenter": 313.1724,
        "meta_mean_anomaly": 46.8788,
        "meta_ephemeris_type": 0,
        "meta_classification_type": "U",
        "meta_norad_cat_id": 32958,
        "meta_element_set_no": 999,
        "meta_rev_at_epoch": 90882,
        "meta_bstar": 0.00012083885,
        "meta_mean_motion_dot": 2.11e-06,
        "meta_mean_motion_ddot": 0,
        "tle_line1": "1 32958U 08026A   25345.83970987  .00000211  00000+0  12084-3 0  9994",
        "tle_line2": "2 32958  98.6697 285.3855 0007944 313.1724  46.8788 14.19514245908829"
      },
      "geometry": {
        "type": "Point",
        "coordinates": [
          -86.69508368999519,
          55.26407280623261
        ]
      }
    },
    {
      "type": "Feature",
      "properties": {
        "norad_id": 35491,
        "name": "GOES 14",
        "group": "weather",
        "lat": 1.0556332405627247,
        "lon": 146.44813003894893,
        "alt_km": 35835.94711332497,
        "timestamp": "2025-12-12T11:38:31.058957+00:00",
        "meta_object_name": "GOES 14",
        "meta_object_id": "2009-033A",
        "meta_epoch": "2025-12-12T03:46:38.737056",
        "meta_mean_motion": 1.00095984,
        "meta_eccentricity": 8.07e-05,
        "meta_inclination": 1.2013,
        "meta_ra_of_asc_node": 85.3986,
        "meta_arg_of_pericenter": 161.9056,
        "meta_mean_anomaly": 141.0791,
        "meta_ephemeris_type": 0,
        "meta_classification_type": "U",
        "meta_norad_cat_id": 35491,
        "meta_element_set_no": 999,
        "meta_rev_at_epoch": 471,
        "meta_bstar": 0,
        "meta_mean_motion_dot": -2.5e-07,
        "meta_mean_motion_ddot": 0,
        "tle_line1": "1 35491U 09033A   25346.15739279 -.00000025  00000+0  00000+0 0  9996",
        "tle_line2": "2 35491   1.2013  85.3986 0000807 161.9056 141.0791  1.00095984  4714"
      },
      "geometry": {
        "type": "Point",
        "coordinates": [
          146.44813003894893,
          1.0556332405627247
        ]
      }
    },
    {
      "type": "Feature",
      "properties": {
        "norad_id": 35951,
        "name": "DMSP 5D-3 F18 (USA 210)",
        "group": "weather",
        "lat": -33.63186916803572,
        "lon": 136.9154820367114,
        "alt_km": 856.8016351627721,
        "timestamp": "2025-12-12T11:38:31.058969+00:00",
        "meta_object_name": "DMSP 5D-3 F18 (USA 210)",
        "meta_object_id": "2009-057A",
        "meta_epoch": "2025-12-12T03:50:42.461088",
        "meta_mean_motion": 14.14768587,
        "meta_eccentricity": 0.0012062,
        "meta_inclination": 98.8834,
        "meta_ra_of_asc_node": 322.5639,
        "meta_arg_of_pericenter": 64.274,
        "meta_mean_anomaly": 295.9677,
        "meta_ephemeris_type": 0,
        "meta_classification_type": "U",
        "meta_norad_cat_id": 35951,
        "meta_element_set_no": 999,
        "meta_rev_at_epoch": 83314,
        "meta_bstar": 0.00022478,
        "meta_mean_motion_dot": 3.89e-06,
        "meta_mean_motion_ddot": 0,
        "tle_line1": "1 35951U 09057A   25346.16021367  .00000389  00000+0  22478-3 0  9995",
        "tle_line2": "2 35951  98.8834 322.5639 0012062  64.2740 295.9677 14.14768587833144"
      },
      "geometry": {
        "type": "Point",
        "coordinates": [
          136.9154820367114,
          -33.63186916803572
        ]
      }
    },
    {
      "type": "Feature",
      "properties": {
        "norad_id": 36411,
        "name": "EWS-G2 (GOES 15)",
        "group": "weather",
        "lat": -0.6426508651846213,
        "lon": -42.4821058903388,
        "alt_km": 35773.37792067791,
        "timestamp": "2025-12-12T11:38:31.058983+00:00",
        "meta_object_name": "EWS-G2 (GOES 15)",
        "meta_object_id": "2010-008A",
        "meta_epoch": "2025-12-12T03:29:59.404416",
        "meta_mean_motion": 1.00269688,
        "meta_eccentricity": 0.0005772,
        "meta_inclination": 0.8128,
        "meta_ra_of_asc_node": 86.0579,
        "meta_arg_of_pericenter": 174.5845,
        "meta_mean_anomaly": 294.3634,
        "meta_ephemeris_type": 0,
        "meta_classification_type": "U",
        "meta_norad_cat_id": 36411,
        "meta_element_set_no": 999,
        "meta_rev_at_epoch": 5776,
        "meta_bstar": 0,
        "meta_mean_motion_dot": 4.8e-07,
        "meta_mean_motion_ddot": 0,
        "tle_line1": "1 36411U 10008A   25346.14582644  .00000048  00000+0  00000+0 0  9998",
        "tle_line2": "2 36411   0.8128  86.0579 0005772 174.5845 294.3634  1.00269688 57762"
      },
      "geometry": {
        "type": "Point",
        "coordinates": [
          -42.4821058903388,
          -0.6426508651846213
        ]
      }
    }
  ]
}